{
  "type": "FeatureCollection",
  "features": [
    {
      "type": "Feature",
      "properties": {
        "norad_id": 33412,
        "name": "COSMO-SKYMED 3",
        "group": "resource",
        "lat": 25.551862551036184,
        "lon": 27.08672255402681,
        "alt_km": 537.9536068415573,
        "timestamp": "2025-12-18T19:29:52.199760+00:00",
        "meta_object_name": "COSMO-SKYMED 3",
        "meta_object_id": "2008-054A",
        "meta_epoch": "2025-12-18T07:38:57.421824",
        "meta_mean_motion": 15.05407166,
        "meta_eccentricity": 0.00166534,
        "meta_inclination": 97.8472,
        "meta_ra_of_asc_node": 202.8042,
        "meta_arg_of_pericenter": 153.5477,
        "meta_mean_anomaly": 206.6602,
        "meta_ephemeris_type": 0,
        "meta_classification_type": "U",
        "meta_norad_cat_id": 33412,
        "meta_element_set_no": 999,
        "meta_rev_at_epoch": 92971,
        "meta_bstar": 0.00026159275,
        "meta_mean_motion_dot": 3.698e-05,
        "meta_mean_motion_ddot": 0,
        "tle_line1": "1 33412U 08054A   25352.31872016  .00003698  00000+0  26159-3 0  9996",
        "tle_line2": "2 33412  97.8472 202.8042 0016653 153.5477 206.6602 15.05407166929718"
      },
      "geometry": {
        "type": "Point",
        "coordinates": [
          27.08672255402681,
          25.551862551036184
        ]
      }
    },
    {
      "type": "Feature",
      "properties": {
        "norad_id": 33446,
        "name": "YAOGAN-4",
        "group": "resource",
        "lat": -0.01772770434265086,
        "lon": -77.1454766698576,
        "alt_km": 618.9100217590067,
        "timestamp": "2025-12-18T19:29:52.199770+00:00",
        "meta_object_name": "YAOGAN-4",
        "meta_object_id": "2008-061A",
        "meta_epoch": "2025-12-18T06:32:26.388096",
        "meta_mean_motion": 14.82698569,
        "meta_eccentricity": 0.00132388,
        "meta_inclination": 97.9188,
        "meta_ra_of_asc_node": 282.3175,
        "meta_arg_of_pericenter": 303.9504,
        "meta_mean_anomaly": 56.0451,
        "meta_ephemeris_type": 0,
        "meta_classification_type": "U",
        "meta_norad_cat_id": 33446,
        "meta_element_set_no": 999,
        "meta_rev_at_epoch": 91885,
        "meta_bstar": 0.0001445107,
        "meta_mean_motion_dot": 1.114e-05,
        "meta_mean_motion_ddot": 0,
        "tle_line1": "1 33446U 08061A   25352.27252764  .00001114  00000+0  14451-3 0  9991",
        "tle_line2": "2 33446  97.9188 282.3175 0013238 303.9504  56.0451 14.82698569918853"
      },
      "geometry": {
        "type": "Point",
        "coordinates": [
          -77.1454766698576,
          -0.01772770434265086
        ]
      }
    },
    {
      "type": "Feature",
      "properties": {
        "norad_id": 33492,
        "name": "GOSAT (IBUKI)",
        "group": "resource",
        "lat": 78.19948742377761,
        "lon": 58.508606203961996,
        "alt_km": 660.9600761794964,
        "timestamp": "2025-12-18T19:29:52.199780+00:00",
        "meta_object_name": "GOSAT (IBUKI)",
        "meta_object_id": "2009-002A",
        "meta_epoch": "2025-12-18T06:02:14.885088",
        "meta_mean_motion": 14.67536216,
        "meta_eccentricity": 9.866e-05,
        "meta_inclination": 98.0772,
        "meta_ra_of_asc_node": 100.7783,
        "meta_arg_of_pericenter": 99.2052,
        "meta_mean_anomaly": 260.9264,
        "meta_ephemeris_type": 0,
        "meta_classification_type": "U",
        "meta_norad_cat_id": 33492,
        "meta_element_set_no": 999,
        "meta_rev_at_epoch": 90492,
        "meta_bstar": 0.00012553614,
        "meta_mean_motion_dot": 6.64e-06,
        "meta_mean_motion_ddot": 0,
        "tle_line1": "1 33492U 09002A   25352.25156117  .00000664  00000+0  12554-3 0  9992",
        "tle_line2": "2 33492  98.0772 100.7783 0000986  99.2052 260.9264 14.67536216904926"
      },
      "geometry": {
        "type": "Point",
        "coordinates": [
          58.508606203961996,
          78.19948742377761
        ]
      }
    },
    {
      "type": "Feature",
      "properties": {
        "norad_id": 35681,
        "name": "DEIMOS-1",
        "group": "resource",
        "lat": -38.86718006598466,
        "lon": 159.40388568545728,
        "alt_km": 652.3476484008515,
        "timestamp": "2025-12-18T19:29:52.199791+00:00",
        "meta_object_name": "DEIMOS-1",
        "meta_object_id": "2009-041A",
        "meta_epoch": "2025-12-18T06:39:01.414080",
        "meta_mean_motion": 14.74960066,
        "meta_eccentricity": 0.00026555,
        "meta_inclination": 97.7142,
        "meta_ra_of_asc_node": 152.6219,
        "meta_arg_of_pericenter": 70.9033,
        "meta_mean_anomaly": 289.2464,
        "meta_ephemeris_type": 0,
        "meta_classification_type": "U",
        "meta_norad_cat_id": 35681,
        "meta_element_set_no": 999,
        "meta_rev_at_epoch": 88021,
        "meta_bstar": 5.595024e-05,
        "meta_mean_motion_dot": 3.29e-06,
        "meta_mean_motion_ddot": 0,
        "tle_line1": "1 35681U 09041A   25352.27709970  .00000329  00000+0  55950-4 0  9996",
        "tle_line2": "2 35681  97.7142 152.6219 0002655  70.9033 289.2464 14.74960066880218"
      },
      "geometry": {
        "type": "Point",
        "coordinates": [
          159.40388568545728,
          -38.86718006598466
        ]
      }
    },
    {
      "type": "Feature",
      "properties": {
        "norad_id": 35682,
        "name": "DUBAISAT-1",
        "group": "resource",
        "lat": -66.94446535673468,
        "lon": -75.83969125969001,
        "alt_km": 648.9538170754995,
        "timestamp": "2025-12-18T19:29:52.199802+00:00",
        "meta_object_name": "DUBAISAT-1",
        "meta_object_id": "2009-041B",
        "meta_epoch": "2025-12-18T06:58:29.759808",
        "meta_mean_motion": 14.74619363,
        "meta_eccentricity": 0.00093247,
        "meta_inclination": 97.9795,
        "meta_ra_of_asc_node": 122.8888,
        "meta_arg_of_pericenter": 294.7299,
        "meta_mean_anomaly": 65.2939,
        "meta_ephemeris_type": 0,
        "meta_classification_type": "U",
        "meta_norad_cat_id": 35682,
        "meta_element_set_no": 999,
        "meta_rev_at_epoch": 87843,
        "meta_bstar": 0.00016705791,
        "meta_mean_motion_dot": 1.064e-05,
        "meta_mean_motion_ddot": 0,
        "tle_line1": "1 35682U 09041B   25352.29062222  .00001064  00000+0  16706-3 0  9993",
        "tle_line2": "2 35682  97.9795 122.8888 0009324 294.7299  65.2939 14.74619363878437"
      },
      "geometry": {
        "type": "Point",
        "coordinates": [
          -75.83969125969001,
          -66.94446535673468
        ]
      }
    },
    {
      "type": "Feature",
      "properties": {
        "norad_id": 35931,
        "name": "OCEANSAT-2",
        "group": "resource",
        "lat": -48.176501527610576,
        "lon": 163.49888972112558,
        "alt_km": 912.9039304517155,
        "timestamp": "2025-12-18T19:29:52.199817+00:00",
        "meta_object_name": "OCEANSAT-2",
        "meta_object_id": "2009-051A",
        "meta_epoch": "2025-12-18T06:23:53.959200",
        "meta_mean_motion": 13.99623526,
        "meta_eccentricity": 0.00160735,
        "meta_inclination": 98.2218,
        "meta_ra_of_asc_node": 352.3066,
        "meta_arg_of_pericenter": 30.5811,
        "meta_mean_anomaly": 329.629,
        "meta_ephemeris_type": 0,
        "meta_classification_type": "U",
        "meta_norad_cat_id": 35931,
        "meta_element_set_no": 999,
        "meta_rev_at_epoch": 85402,
        "meta_bstar": -6.7121324e-05,
        "meta_mean_motion_dot": -1.36e-06,
        "meta_mean_motion_ddot": 0,
        "tle_line1": "1 35931U 09051A   25352.26659675 -.00000136  00000+0 -67121-4 0  9991",
        "tle_line2": "2 35931  98.2218 352.3066 0016073  30.5811 329.6290 13.99623526854029"
      },
      "geometry": {
        "type": "Point",
        "coordinates": [
          163.49888972112558,
          -48.176501527610576
        ]
      }
    },
    {
      "type": "Feature",
      "properties": {
        "norad_id": 35946,
        "name": "WORLDVIEW-2 (WV-2)",
        "group": "resource",
        "lat": 75.23353997568557,
        "lon": -81.72235629099268,
        "alt_km": 756.3947417156123,
        "timestamp": "2025-12-18T19:29:52.199828+00:00",
        "meta_object_name": "WORLDVIEW-2 (WV-2)",
        "meta_object_id": "2009-055A",
        "meta_epoch": "2025-12-18T05:39:46.558656",
        "meta_mean_motion": 14.37726407,
        "meta_eccentricity": 0.00050055,
        "meta_inclination": 98.4783,
        "meta_ra_of_asc_node": 63.245,
        "meta_arg_of_pericenter": 57.2437,
        "meta_mean_anomaly": 302.9232,
        "meta_ephemeris_type": 0,
        "meta_classification_type": "U",
        "meta_norad_cat_id": 35946,
        "meta_element_set_no": 999,
        "meta_rev_at_epoch": 84964,
        "meta_bstar": 6.2004655e-05,
        "meta_mean_motion_dot": 1.43e-06,
        "meta_mean_motion_ddot": 0,
        "tle_line1": "1 35946U 09055A   25352.23595554  .00000143  00000+0  62005-4 0  9995",
        "tle_line2": "2 35946  98.4783  63.2450 0005005  57.2437 302.9232 14.37726407849649"
      },
      "geometry": {
        "type": "Point",
        "coordinates": [
          -81.72235629099268,
          75.23353997568557
        ]
      }
    }
  ]
}